NORAD_CAT_ID,OBJECT_NAME,OBJECT_TYPE,EPOCH,MEAN_MOTION,ECCENTRICITY,INCLINATION,RA_OF_ASC_NODE,ARG_OF_PERICENTER,MEAN_ANOMALY,BSTAR,MEAN_MOTION_DOT,MEAN_MOTION_DDOT,TLE_LINE0,TLE_LINE1,TLE_LINE2,SEMIMAJOR_AXIS,PERIOD,APOGEE,PERIGEE,DECAYED
49733.0,STARLINK-3252,PAYLOAD,2024-07-04 00:00:37,15.08819224,7.15e-05,53.2175,34.0804,88.1351,271.9723,8.5912e-05,1.079e-05,0.0,0 STARLINK-3252,1 49733U 21115K   24186.00043677  .00001079  00000-0  85912-4 0  9990,2 49733  53.2175  34.0804 0000715  88.1351 271.9723 15.08819224143851,6917.944,95.439,540.304,539.314,0.0
49733.0,STARLINK-3252,PAYLOAD,2024-07-04 06:22:10,15.08831602,8.09e-05,53.2176,32.8914,80.349,279.7594,-4.4764e-05,-1e-05,0.0,0 STARLINK-3252,1 49733U 21115K   24186.26539425 -.00001000  00000-0 -44764-4 0  9995,2 49733  53.2176  32.8914 0000809  80.3490 279.7594 15.08831602143892,6917.906,95.438,540.331,539.211,0.0
49733.0,STARLINK-3252,PAYLOAD,2024-07-04 14:19:05,15.08834582,7.17e-05,53.2168,31.4042,75.5191,284.588,1.5497e-05,-4.1e-07,0.0,0 STARLINK-3252,1 49733U 21115K   24186.59659243 -.00000041  00000-0  15497-4 0  9996,2 49733  53.2168  31.4042 0000717  75.5191 284.5880 15.08834582142837,6917.897,95.438,540.258,539.266,0.0
49733.0,STARLINK-3252,PAYLOAD,2024-07-04 20:40:37,15.08843215,8.55e-05,53.2176,30.2152,79.5849,280.5239,0.00011725,1.579e-05,0.0,0 STARLINK-3252,1 49733U 21115K   24186.86154501  .00001579  00000-0  11725-3 0  9998,2 49733  53.2176  30.2152 0000855  79.5849 280.5239 15.08843215143986,6917.871,95.437,540.327,539.144,0.0
49733.0,STARLINK-3252,PAYLOAD,2024-07-05 06:12:55,15.08855943,8.9e-05,53.2183,28.4308,78.9501,281.1591,0.0002071,3.011e-05,0.0,0 STARLINK-3252,1 49733U 21115K   24187.25897320  .00003011  00000-0  20710-3 0  9992,2 49733  53.2183  28.4308 0000890  78.9501 281.1591 15.08855943144040,6917.832,95.437,540.312,539.081,0.0
49733.0,STARLINK-3252,PAYLOAD,2024-07-05 20:31:25,15.08830537,8.07e-05,53.2177,25.7555,89.9971,270.1114,0.000113,1.511e-05,0.0,0 STARLINK-3252,1 49733U 21115K   24187.85515480  .00001511  00000-0  11300-3 0  9990,2 49733  53.2177  25.7555 0000807  89.9971 270.1114 15.08830537144139,6917.909,95.438,540.333,539.216,0.0
49733.0,STARLINK-3252,PAYLOAD,2024-07-06 06:03:43,15.08846502,9.08e-05,53.2188,23.9707,83.2583,276.8512,0.00026714,3.967e-05,0.0,0 STARLINK-3252,1 49733U 21115K   24188.25258397  .00003967  00000-0  26714-3 0  9998,2 49733  53.2188  23.9707 0000908  83.2583 276.8512 15.08846502144198,6917.861,95.437,540.354,539.097,0.0
49733.0,STARLINK-3252,PAYLOAD,2024-07-06 20:22:11,15.08834017,0.0001116,53.2179,21.2957,97.604,262.5079,-0.00013906,-2.5e-05,0.0,0 STARLINK-3252,1 49733U 21115K   24188.84874981 -.00002500  00000-0 -13906-3 0  9999,2 49733  53.2179  21.2957 0001116  97.6040 262.5079 15.08834017144283,6917.899,95.438,540.536,538.992,0.0
49733.0,STARLINK-3252,PAYLOAD,2024-07-06 21:57:35,15.08836719,0.0001105,53.2178,20.9976,93.1116,267.0002,-6.9111e-05,-1.387e-05,0.0,0 STARLINK-3252,1 49733U 21115K   24188.91498930 -.00001387  00000-0 -69111-4 0  9995,2 49733  53.2178  20.9976 0001105  93.1116 267.0002 15.08836719143187,6917.89,95.438,540.52,538.991,0.0
49733.0,STARLINK-3252,PAYLOAD,2024-07-07 05:54:30,15.08845257,0.000111,53.2183,19.5102,82.1312,277.9806,0.00014194,1.972e-05,0.0,0 STARLINK-3252,1 49733U 21115K   24189.24618729  .00001972  00000-0  14194-3 0  9990,2 49733  53.2183  19.5102 0001110  82.1312 277.9806 15.08845257144348,6917.864,95.437,540.497,538.961,0.0
49733.0,STARLINK-3252,PAYLOAD,2024-07-07 20:12:59,15.08844121,0.0001093,53.2171,16.8322,73.9733,286.1379,0.00042868,6.542e-05,0.0,0 STARLINK-3252,1 49733U 21115K   24189.84235171  .00006542  00000-0  42868-3 0  9999,2 49733  53.2171  16.8322 0001093  73.9733 286.1379 15.08844121144430,6917.868,95.437,540.489,538.977,0.0
49733.0,STARLINK-3252,PAYLOAD,2024-07-08 12:06:50,15.08829927,7.99e-05,53.2164,13.8589,104.9481,255.16,-0.00010682,-1.987e-05,0.0,0 STARLINK-3252,1 49733U 21115K   24190.50475305 -.00001987  00000-0 -10682-3 0  9998,2 49733  53.2164  13.8589 0000799 104.9481 255.1600 15.08829927144532,6917.911,95.438,540.329,539.223,0.0
49733.0,STARLINK-3252,PAYLOAD,2024-07-08 21:39:09,15.0882669,8.22e-05,53.2175,12.0755,89.969,270.1397,-1.3666e-05,-5.05e-06,0.0,0 STARLINK-3252,1 49733U 21115K   24190.90219688 -.00000505  00000-0 -13666-4 0  9993,2 49733  53.2175  12.0755 0000822  89.9690 270.1397 15.08826690143488,6917.921,95.438,540.355,539.217,0.0
49733.0,STARLINK-3252,PAYLOAD,2024-07-09 11:57:38,15.08839421,7.63e-05,53.2175,9.3994,90.4961,269.6119,0.00048417,7.426e-05,0.0,0 STARLINK-3252,1 49733U 21115K   24191.49835979  .00007426  00000-0  48417-3 0  9993,2 49733  53.2175   9.3994 0000763  90.4961 269.6119 15.08839421143575,6917.882,95.438,540.275,539.219,0.0
49733.0,STARLINK-3252,PAYLOAD,2024-07-09 18:19:10,15.08849484,7.49e-05,53.2176,8.2107,81.8285,278.2792,0.0010024,0.00015705,0.0,0 STARLINK-3252,1 49733U 21115K   24191.76331995  .00015705  00000-0  10024-2 0  9993,2 49733  53.2176   8.2107 0000749  81.8285 278.2792 15.08849484144728,6917.851,95.437,540.235,539.198,0.0
49733.0,STARLINK-3252,PAYLOAD,2024-07-10 11:48:24,15.08857082,7.72e-05,53.218,4.9401,74.3372,285.7705,0.00058388,9.021e-05,0.0,0 STARLINK-3252,1 49733U 21115K   24192.49195512  .00009021  00000-0  58388-3 0  9997,2 49733  53.2180   4.9401 0000772  74.3372 285.7705 15.08857082144835,6917.828,95.436,540.227,539.159,0.0
49733.0,STARLINK-3252,PAYLOAD,2024-07-11 14:49:57,15.08846633,0.0001022,53.2175,359.8824,114.104,246.0059,0.00027271,4.056e-05,0.0,0 STARLINK-3252,1 49733U 21115K   24193.61803119  .00004056  00000-0  27271-3 0  9991,2 49733  53.2175 359.8824 0001022 114.1040 246.0059 15.08846633143891,6917.86,95.437,540.432,539.018,0.0
49733.0,STARLINK-3252,PAYLOAD,2024-07-11 18:00:44,15.08843282,8.16e-05,53.2166,359.2899,76.846,283.2623,2.0197e-05,3.4e-07,0.0,0 STARLINK-3252,1 49733U 21115K   24193.75051198  .00000034  00000-0  20197-4 0  9991,2 49733  53.2166 359.2899 0000816  76.8460 283.2623 15.08843282145021,6917.87,95.437,540.3,539.171,0.0
49733.0,STARLINK-3252,PAYLOAD,2024-07-11 21:11:30,15.08845738,6.34e-05,53.2161,358.6939,60.3651,299.7404,3.857e-05,3.26e-06,0.0,0 STARLINK-3252,1 49733U 21115K   24193.88299118  .00000326  00000-0  38570-4 0  9999,2 49733  53.2161 358.6939 0000634  60.3651 299.7404 15.08845738143937,6917.863,95.437,540.166,539.289,0.0
49733.0,STARLINK-3252,PAYLOAD,2024-07-12 03:33:02,15.0885648,7.2e-05,53.2186,357.5061,79.1764,280.9309,0.00019458,2.812e-05,0.0,0 STARLINK-3252,1 49733U 21115K   24194.14794452  .00002812  00000-0  19458-3 0  9995,2 49733  53.2186 357.5061 0000720  79.1764 280.9309 15.08856480145087,6917.83,95.437,540.193,539.197,0.0
49733.0,STARLINK-3252,PAYLOAD,2024-07-12 11:29:59,15.0882625,6.56e-05,53.2158,356.0173,52.1707,307.9344,-0.00016663,-2.937e-05,0.0,0 STARLINK-3252,1 49733U 21115K   24194.47916008 -.00002937  00000-0 -16663-3 0  9999,2 49733  53.2158 356.0173 0000656  52.1707 307.9344 15.08826250145137,6917.922,95.438,540.241,539.334,0.0
49733.0,STARLINK-3252,PAYLOAD,2024-07-12 14:40:45,15.08833507,8.33e-05,53.2188,355.426,85.5014,274.6073,-6.3806e-05,-1.303e-05,0.0,0 STARLINK-3252,1 49733U 21115K   24194.61163733 -.00001303  00000-0 -63806-4 0  9992,2 49733  53.2188 355.4260 0000833  85.5014 274.6073 15.08833507144049,6917.9,95.438,540.341,539.189,0.0
49733.0,STARLINK-3252,PAYLOAD,2024-07-12 17:51:31,15.08836364,8.82e-05,53.2194,354.833,89.9483,270.161,-4.3732e-06,-3.57e-06,0.0,0 STARLINK-3252,1 49733U 21115K   24194.74411651 -.00000357  00000-0 -43732-5 0  9996,2 49733  53.2194 354.8330 0000882  89.9483 270.1610 15.08836364145176,6917.892,95.438,540.367,539.146,0.0
49733.0,STARLINK-3252,PAYLOAD,2024-07-13 03:23:49,15.08848066,8.2e-05,53.218,353.0457,77.2376,282.8708,0.0002576,3.815e-05,0.0,0 STARLINK-3252,1 49733U 21115K   24195.14155020  .00003815  00000-0  25760-3 0  9995,2 49733  53.2180 353.0457 0000820  77.2376 282.8708 15.08848066145232,6917.856,95.437,540.288,539.153,0.0
49733.0,STARLINK-3252,PAYLOAD,2024-07-13 14:31:32,15.08837507,0.0001926,53.2187,350.9655,78.1129,282.0079,8.5443e-05,1.072e-05,0.0,0 STARLINK-3252,1 49733U 21115K   24195.60523951  .00001072  00000-0  85443-4 0  9996,2 49733  53.2187 350.9655 0001926  78.1129 282.0079 15.08837507144194,6917.888,95.438,541.085,538.421,0.0
49733.0,STARLINK-3252,PAYLOAD,2024-07-13 20:53:04,15.08846403,7.52e-05,53.2174,349.7746,77.3144,282.7933,0.00060453,9.348e-05,0.0,0 STARLINK-3252,1 49733U 21115K   24195.87019581  .00009348  00000-0  60453-3 0  9991,2 49733  53.2174 349.7746 0000752  77.3144 282.7933 15.08846403145340,6917.861,95.437,540.246,539.206,0.0
49733.0,STARLINK-3252,PAYLOAD,2024-07-14 14:22:19,15.08847349,0.0001678,53.2186,346.5057,84.9888,275.1296,0.00092402,0.00014451,0.0,0 STARLINK-3252,1 49733U 21115K   24196.59884109  .00014451  00000-0  92402-3 0  9997,2 49733  53.2186 346.5057 0001678  84.9888 275.1296 15.08847349144347,6917.858,95.437,540.884,538.562,0.0
49733.0,STARLINK-3252,PAYLOAD,2024-07-14 15:57:42,15.08847496,8.14e-05,53.2171,346.2056,84.2624,275.8461,0.0010002,0.00015669,0.0,0 STARLINK-3252,1 49733U 21115K   24196.66507905  .00015669  00000-0  10002-2 0  9998,2 49733  53.2171 346.2056 0000814  84.2624 275.8461 15.08847496145467,6917.857,95.437,540.286,539.159,0.0
49733.0,STARLINK-3252,PAYLOAD,2024-07-15 09:26:57,15.08854737,9.27e-05,53.2162,342.9347,83.9284,276.1814,0.0010434,0.00016363,0.0,0 STARLINK-3252,1 49733U 21115K   24197.39371790  .00016363  00000-0  10434-2 0  9991,2 49733  53.2162 342.9347 0000927  83.9284 276.1814 15.08854737145570,6917.835,95.437,540.342,539.059,0.0
49733.0,STARLINK-3252,PAYLOAD,2024-07-15 14:13:06,15.08850734,9.2e-05,53.2168,342.0439,86.5708,273.539,0.00066954,0.00010387,0.0,0 STARLINK-3252,1 49733U 21115K   24197.59243897  .00010387  00000-0  66954-3 0  9998,2 49733  53.2168 342.0439 0000920  86.5708 273.5390 15.08850734144495,6917.848,95.437,540.349,539.076,0.0
